NORAD_CAT_ID,OBJECT_NAME,OBJECT_TYPE,EPOCH,MEAN_MOTION,ECCENTRICITY,INCLINATION,RA_OF_ASC_NODE,ARG_OF_PERICENTER,MEAN_ANOMALY,BSTAR,MEAN_MOTION_DOT,MEAN_MOTION_DDOT,TLE_LINE0,TLE_LINE1,TLE_LINE2,SEMIMAJOR_AXIS,PERIOD,APOGEE,PERIGEE,DECAYED
53018.0,STARLINK-4279,PAYLOAD,2023-02-20 23:51:40,15.08842014,0.0001095,53.2157,39.2035,98.2305,261.8811,-4.8657e-05,-1.062e-05,0.0,0 STARLINK-4279,1 53018U 22076AJ  23051.99422390 -.00001062  00000-0 -48657-4 0  9998,2 53018  53.2157  39.2035 0001095  98.2305 261.8811 15.08842014 35475,6917.874,95.437,540.497,538.982,0.0
53018.0,STARLINK-4279,PAYLOAD,2023-02-21 07:48:36,15.08851906,0.0001164,53.216,37.717,98.2835,261.8289,0.00011284,1.509e-05,0.0,0 STARLINK-4279,1 53018U 22076AJ  23052.32541792  .00001509  00000-0  11284-3 0  9993,2 53018  53.2160  37.7170 0001164  98.2835 261.8289 15.08851906 35522,6917.844,95.437,540.514,538.904,0.0
53018.0,STARLINK-4279,PAYLOAD,2023-02-21 15:45:31,15.08847776,0.0001184,53.2162,36.23,100.9975,259.115,5.5046e-06,-2e-06,0.0,0 STARLINK-4279,1 53018U 22076AJ  23052.65661855 -.00000200  00000-0  55046-5 0  9996,2 53018  53.2162  36.2300 0001184 100.9975 259.1150 15.08847776 35102,6917.857,95.437,540.541,538.903,0.0
53018.0,STARLINK-4279,PAYLOAD,2023-02-22 02:53:14,15.08833995,0.0001346,53.2171,34.1487,97.9729,262.1416,4.1302e-05,3.69e-06,0.0,0 STARLINK-4279,1 53018U 22076AJ  23053.12031009  .00000369  00000-0  41302-4 0  9995,2 53018  53.2171  34.1487 0001346  97.9729 262.1416 15.08833995 35643,6917.899,95.438,540.695,538.833,0.0
53018.0,STARLINK-4279,PAYLOAD,2023-02-22 07:39:23,15.08839592,0.0001237,53.2171,33.2564,92.8698,267.2435,5.4422e-05,5.78e-06,0.0,0 STARLINK-4279,1 53018U 22076AJ  23053.31902572  .00000578  00000-0  54422-4 0  9997,2 53018  53.2171  33.2564 0001237  92.8698 267.2435 15.08839592 35205,6917.882,95.438,540.602,538.891,0.0
53018.0,STARLINK-4279,PAYLOAD,2023-02-22 21:57:52,15.08836018,0.0001146,53.2169,30.58,95.0643,265.048,4.3366e-05,4.02e-06,0.0,0 STARLINK-4279,1 53018U 22076AJ  23053.91518879  .00000402  00000-0  43366-4 0  9997,2 53018  53.2169  30.5800 0001146  95.0643 265.0480 15.08836018 35294,6917.893,95.438,540.55,538.965,0.0
53018.0,STARLINK-4279,PAYLOAD,2023-02-23 07:30:09,15.08858598,0.0001315,53.2174,28.7955,95.5087,264.6055,0.00018053,2.588e-05,0.0,0 STARLINK-4279,1 53018U 22076AJ  23054.31261043  .00002588  00000-0  18053-3 0  9991,2 53018  53.2174  28.7955 0001315  95.5087 264.6055 15.08858598 35824,6917.824,95.436,540.598,538.779,0.0
53018.0,STARLINK-4279,PAYLOAD,2023-02-23 21:48:38,15.08840802,0.0001481,53.217,26.1195,83.8636,276.2525,0.00014682,2.049e-05,0.0,0 STARLINK-4279,1 53018U 22076AJ  23054.90878189  .00002049  00000-0  14682-3 0  9997,2 53018  53.2170  26.1195 0001481  83.8636 276.2525 15.08840802 35440,6917.878,95.438,540.767,538.718,0.0
53018.0,STARLINK-4279,PAYLOAD,2023-02-23 23:24:01,15.08839656,0.0001316,53.2171,25.8218,87.4111,272.7032,0.00014062,1.951e-05,0.0,0 STARLINK-4279,1 53018U 22076AJ  23054.97502246  .00001951  00000-0  14062-3 0  9995,2 53018  53.2171  25.8218 0001316  87.4111 272.7032 15.08839656 35920,6917.881,95.438,540.657,538.836,0.0
53018.0,STARLINK-4279,PAYLOAD,2023-02-24 07:20:56,15.08852136,0.0001226,53.2169,24.3344,83.7177,276.3955,0.00017644,2.522e-05,0.0,0 STARLINK-4279,1 53018U 22076AJ  23055.30621314  .00002522  00000-0  17644-3 0  9995,2 53018  53.2169  24.3344 0001226  83.7177 276.3955 15.08852136 35979,6917.843,95.437,540.556,538.86,0.0
53018.0,STARLINK-4279,PAYLOAD,2023-02-24 21:39:26,15.08832605,0.0001023,53.2178,21.6589,93.0255,267.0854,1.4452e-05,-5.8e-07,0.0,0 STARLINK-4279,1 53018U 22076AJ  23055.90239025 -.00000058  00000-0  14452-4 0  9993,2 53018  53.2178  21.6589 0001023  93.0255 267.0854 15.08832605 36061,6917.903,95.438,540.476,539.06,0.0
53018.0,STARLINK-4279,PAYLOAD,2023-02-25 07:11:44,15.08837462,0.0001267,53.2168,19.8738,92.9974,267.1163,-9.7631e-05,-1.841e-05,0.0,0 STARLINK-4279,1 53018U 22076AJ  23056.29982577 -.00001841  00000-0 -97631-4 0  9995,2 53018  53.2168  19.8738 0001267  92.9974 267.1163 15.08837462 36128,6917.888,95.438,540.63,538.877,0.0
53018.0,STARLINK-4279,PAYLOAD,2023-02-25 21:30:13,15.08839401,0.0001236,53.2162,17.1972,91.4139,268.6995,3.5376e-05,2.75e-06,0.0,0 STARLINK-4279,1 53018U 22076AJ  23056.89598703  .00000275  00000-0  35376-4 0  9991,2 53018  53.2162  17.1972 0001236  91.4139 268.6995 15.08839401 35747,6917.882,95.438,540.602,538.892,0.0
53018.0,STARLINK-4279,PAYLOAD,2023-02-26 03:51:45,15.08850435,0.0001321,53.2163,16.008,94.5635,265.5508,0.00022955,3.368e-05,0.0,0 STARLINK-4279,1 53018U 22076AJ  23057.16094224  .00003368  00000-0  22955-3 0  9995,2 53018  53.2163  16.0080 0001321  94.5635 265.5508 15.08850435 36259,6917.848,95.437,540.627,538.8,0.0
53018.0,STARLINK-4279,PAYLOAD,2023-02-26 21:20:59,15.08852201,0.0001359,53.2161,12.7375,98.6465,261.4681,0.0004137,6.304e-05,0.0,0 STARLINK-4279,1 53018U 22076AJ  23057.88958044  .00006304  00000-0  41370-3 0  9998,2 53018  53.2161  12.7375 0001359  98.6465 261.4681 15.08852201 35893,6917.843,95.437,540.648,538.768,0.0
53018.0,STARLINK-4279,PAYLOAD,2023-02-27 05:17:54,15.0887222,0.0001567,53.2181,11.2552,88.5287,271.5885,0.00064373,9.981e-05,0.0,0 STARLINK-4279,1 53018U 22076AJ  23058.22077175  .00009981  00000-0  64373-3 0  9996,2 53018  53.2181  11.2552 0001567  88.5287 271.5885 15.08872220 36417,6917.782,95.436,540.731,538.563,0.0
53018.0,STARLINK-4279,PAYLOAD,2023-02-27 21:11:45,15.08862425,0.0001125,53.2172,8.2732,118.0629,242.0477,0.00014483,2.019e-05,0.0,0 STARLINK-4279,1 53018U 22076AJ  23058.88316190  .00002019  00000-0  14483-3 0  9993,2 53018  53.2172   8.2732 0001125 118.0629 242.0477 15.08862425 36047,6917.812,95.436,540.455,538.899,0.0
53018.0,STARLINK-4279,PAYLOAD,2023-02-28 05:08:40,15.08850576,0.0001715,53.2185,6.7883,89.2888,270.83,-0.00024053,-4.115e-05,0.0,0 STARLINK-4279,1 53018U 22076AJ  23059.21435667 -.00004115  00000-0 -24053-3 0  9997,2 53018  53.2185   6.7883 0001715  89.2888 270.8300 15.08850576 36567,6917.848,95.437,540.899,538.527,0.0
53018.0,STARLINK-4279,PAYLOAD,2023-02-28 21:02:33,15.08807377,0.0001283,53.2185,3.8173,95.1701,264.9438,-0.0006972,-0.00011357,0.0,0 STARLINK-4279,1 53018U 22076AJ  23059.87678170 -.00011357  00000-0 -69720-3 0  9993,2 53018  53.2185   3.8173 0001283  95.1701 264.9438 15.08807377 36193,6917.98,95.44,540.733,538.958,0.0
53018.0,STARLINK-4279,PAYLOAD,2023-02-28 22:37:57,15.08798837,0.0001073,53.2197,3.5227,60.6267,299.4832,-0.00077878,-0.00012646,0.0,0 STARLINK-4279,1 53018U 22076AJ  23059.94302650 -.00012646  00000-0 -77878-3 0  9993,2 53018  53.2197   3.5227 0001073  60.6267 299.4832 15.08798837 36678,6918.006,95.44,540.614,539.129,0.0
53018.0,STARLINK-4279,PAYLOAD,2023-03-01 06:34:53,15.08805913,0.0001278,53.2169,2.0325,80.5912,279.5225,-0.0003481,-5.818e-05,0.0,0 STARLINK-4279,1 53018U 22076AJ  23060.27423424 -.00005818  00000-0 -34810-3 0  9996,2 53018  53.2169   2.0325 0001278  80.5912 279.5225 15.08805913 36720,6917.985,95.44,540.734,538.965,0.0
53018.0,STARLINK-4279,PAYLOAD,2023-03-02 03:14:55,15.0886092,0.000121,53.2163,358.1679,71.9526,288.1597,0.0020407,0.00032358,0.0,0 STARLINK-4279,1 53018U 22076AJ  23061.13536292  .00032358  00000-0  20407-2 0  9993,2 53018  53.2163 358.1679 0001210  71.9526 288.1597 15.08860920 36853,6917.816,95.436,540.519,538.844,0.0
53018.0,STARLINK-4279,PAYLOAD,2023-03-03 03:05:41,15.08874612,0.0001891,53.2177,353.708,55.6548,304.4623,0.0010147,0.00015913,0.0,0 STARLINK-4279,1 53018U 22076AJ  23062.12895321  .00015913  00000-0  10147-2 0  9992,2 53018  53.2177 353.7080 0001891  55.6548 304.4623 15.08874612 37006,6917.775,95.435,540.948,538.331,0.0
53018.0,STARLINK-4279,PAYLOAD,2023-03-03 18:59:32,15.08871744,0.0001601,53.2178,350.7359,65.9322,294.1837,0.00078884,0.000123,0.0,0 STARLINK-4279,1 53018U 22076AJ  23062.79134478  .00012300  00000-0  78884-3 0  9994,2 53018  53.2178 350.7359 0001601  65.9322 294.1837 15.08871744 36639,6917.783,95.436,540.756,538.541,0.0
53018.0,STARLINK-4279,PAYLOAD,2023-03-03 22:10:18,15.08866317,0.0001346,53.2173,350.1385,77.4674,282.6469,0.00079655,0.00012421,0.0,0 STARLINK-4279,1 53018U 22076AJ  23062.92382311  .00012421  00000-0  79655-3 0  9991,2 53018  53.2173 350.1385 0001346  77.4674 282.6469 15.08866317 37129,6917.8,95.436,540.596,538.734,0.0
53018.0,STARLINK-4279,PAYLOAD,2023-03-04 01:21:04,15.08871259,0.0001205,53.2173,349.5442,77.7947,282.318,0.00063842,9.896e-05,0.0,0 STARLINK-4279,1 53018U 22076AJ  23063.05629956  .00009896  00000-0  63842-3 0  9998,2 53018  53.2173 349.5442 0001205  77.7947 282.3180 15.08871259 36672,6917.785,95.436,540.483,538.816,0.0
53018.0,STARLINK-4279,PAYLOAD,2023-03-05 01:11:52,15.08835672,0.0001457,53.2162,345.0839,58.7481,301.3653,0.00043907,6.706e-05,0.0,0 STARLINK-4279,1 53018U 22076AJ  23064.04991318  .00006706  00000-0  43907-3 0  9999,2 53018  53.2162 345.0839 0001457  58.7481 301.3653 15.08835672 37297,6917.894,95.438,540.767,538.751,0.0
53018.0,STARLINK-4279,PAYLOAD,2023-03-05 21:51:53,15.08849605,0.0001559,53.216,341.2161,60.4977,299.617,0.00078807,0.0001228,0.0,0 STARLINK-4279,1 53018U 22076AJ  23064.91103443  .00012280  00000-0  78807-3 0  9990,2 53018  53.2160 341.2161 0001559  60.4977 299.6170 15.08849605 36950,6917.851,95.437,540.795,538.638,0.0
53018.0,STARLINK-4279,PAYLOAD,2023-03-06 01:02:39,15.08861949,0.0001356,53.2169,340.6219,60.5328,299.5799,0.0014772,0.00023314,0.0,0 STARLINK-4279,1 53018U 22076AJ  23065.04350906  .00023314  00000-0  14772-2 0  9993,2 53018  53.2169 340.6219 0001356  60.5328 299.5799 15.08861949 37448,6917.813,95.436,540.616,538.74,0.0
53018.0,STARLINK-4279,PAYLOAD,2023-03-06 18:31:53,15.08845722,9.49e-05,53.2179,337.3512,64.1561,295.9529,0.00018388,2.64e-05,0.0,0 STARLINK-4279,1 53018U 22076AJ  23065.77215137  .00002640  00000-0  18388-3 0  9996,2 53018  53.2179 337.3512 0000949  64.1561 295.9529 15.08845722 37558,6917.863,95.437,540.384,539.071,0.0
